*******************************************************************************
Ephemeris / WWW_USER Mon Mar 24 10:37:01 2025 Pasadena, USA      / Horizons    
*******************************************************************************
Target body name: 358P/PANSTARRS                  {source: JPL#33}
Center body name: Earth (399)                     {source: DE441}
Center-site name: Mauna Kea
*******************************************************************************
Start time      : A.D. 2018-Aug-09 05:04:00.0000 UT      
Stop  time      : A.D. 2018-Aug-09 15:50:00.0000 UT      
Step-size       : 1 minutes
*******************************************************************************
Target pole/equ : undefined
Target radii    : undefined                                                    
Center geodetic : 204.5278, 19.8260847, 4.21024   {E-lon(deg),Lat(deg),Alt(km)}
Center cylindric: 204.5278, 6006.35451, 2151.0229 {E-lon(deg),Dxy(km),Dz(km)}
Center pole/equ : ITRF93                          {East-longitude positive}
Center radii    : 6378.137, 6378.137, 6356.752 km {Equator_a, b, pole_c}       
Target primary  : Sun
Vis. interferer : MOON (R_eq= 1737.400) km        {source: DE441}
Rel. light bend : Sun                             {source: DE441}
Rel. lght bnd GM: 1.3271E+11 km^3/s^2                                          
Small-body perts: Yes                             {source: SB441-N16}
Atmos refraction: NO (AIRLESS)
RA format       : HMS
Time format     : CAL 
Calendar mode   : Mixed Julian/Gregorian
RTS-only print  : NO       
EOP file        : eop.250321.p250617                                           
EOP coverage    : DATA-BASED 1962-JAN-20 TO 2025-MAR-21. PREDICTS-> 2025-JUN-16
Units conversion: 1 au= 149597870.700 km, c= 299792.458 km/s, 1 day= 86400.0 s 
Table cut-offs 1: Elevation (-90.0deg=NO ),Airmass (>38.000=NO), Daylight (YES)
Table cut-offs 2: Solar elongation (  0.0,180.0=NO ),Local Hour Angle( 0.0=NO )
Table cut-offs 3: RA/DEC angular rate (     0.0=NO )                           
*******************************************************************************
Initial IAU76/J2000 heliocentric ecliptic osculating elements (au, days, deg.):
  EPOCH=  2459793.5 ! 2022-Aug-02.0000000 (TDB)    RMSW= n.a.                  
   EC= .2388922136090974   QR= 2.394903345037887   TP= 2460259.6862889272      
   OM= 85.70246509974154   W= 299.7728624007243    IN= 11.06025031481611       
  Equivalent ICRF heliocentric cartesian coordinates (au, au/d):
   X= 3.243054425204740E-01  Y=-2.897679241187805E+00  Z=-1.376383147061824E+00
  VX= 8.746409534656921E-03 VY= 3.598394346577952E-03 VZ=-2.469697424538527E-04
Comet physical (GM= km^3/s^2; RAD= km):                                        
   GM= n.a.                RAD= n.a.                                           
   M1=  7.8      M2=  17.2     k1=  30.    k2=  5.      PHCOF=  .030           
Comet non-gravitational force model (AMRAT=m^2/kg;A1-A3=au/d^2;DT=days;R0=au): 
   AMRAT=  0.                                      DT=  0.                     
   A1= 0.                  A2= -2.303385920823E-10 A3= 0.                      
 Standard model:                                                               
   ALN=  .1112620426   NK=  4.6142   NM=  2.15     NN=  5.093    R0=  2.808    
*******************************************************************************
 Date__(UT)__HR:MN     R.A._________(ICRF)_________DEC
******************************************************
$$SOE
 2018-Aug-09 12:52     05 19 33.584395 +19 01 50.84361
 2018-Aug-09 12:53     05 19 33.652919 +19 01 50.98154
 2018-Aug-09 12:54     05 19 33.721438 +19 01 51.11946
 2018-Aug-09 12:55     05 19 33.789953 +19 01 51.25738
 2018-Aug-09 12:56     05 19 33.858464 +19 01 51.39530
 2018-Aug-09 12:57     05 19 33.926971 +19 01 51.53321
 2018-Aug-09 12:58     05 19 33.995474 +19 01 51.67111
 2018-Aug-09 12:59     05 19 34.063973 +19 01 51.80902
 2018-Aug-09 13:00     05 19 34.132468 +19 01 51.94691
 2018-Aug-09 13:01     05 19 34.200958 +19 01 52.08481
 2018-Aug-09 13:02     05 19 34.269445 +19 01 52.22270
 2018-Aug-09 13:03     05 19 34.337928 +19 01 52.36058
 2018-Aug-09 13:04     05 19 34.406407 +19 01 52.49846
 2018-Aug-09 13:05     05 19 34.474882 +19 01 52.63634
 2018-Aug-09 13:06     05 19 34.543352 +19 01 52.77421
 2018-Aug-09 13:07     05 19 34.611819 +19 01 52.91208
 2018-Aug-09 13:08     05 19 34.680282 +19 01 53.04994
 2018-Aug-09 13:09     05 19 34.748740 +19 01 53.18780
 2018-Aug-09 13:10     05 19 34.817195 +19 01 53.32565
 2018-Aug-09 13:11     05 19 34.885646 +19 01 53.46350
 2018-Aug-09 13:12     05 19 34.954092 +19 01 53.60134
 2018-Aug-09 13:13     05 19 35.022535 +19 01 53.73918
 2018-Aug-09 13:14     05 19 35.090974 +19 01 53.87701
 2018-Aug-09 13:15     05 19 35.159408 +19 01 54.01484
 2018-Aug-09 13:16     05 19 35.227839 +19 01 54.15266
 2018-Aug-09 13:17     05 19 35.296266 +19 01 54.29047
 2018-Aug-09 13:18     05 19 35.364689 +19 01 54.42828
 2018-Aug-09 13:19     05 19 35.433107 +19 01 54.56609
 2018-Aug-09 13:20     05 19 35.501522 +19 01 54.70389
 2018-Aug-09 13:21     05 19 35.569933 +19 01 54.84168
 2018-Aug-09 13:22     05 19 35.638340 +19 01 54.97947
 2018-Aug-09 13:23     05 19 35.706743 +19 01 55.11725
 2018-Aug-09 13:24     05 19 35.775142 +19 01 55.25502
 2018-Aug-09 13:25     05 19 35.843537 +19 01 55.39279
 2018-Aug-09 13:26     05 19 35.911928 +19 01 55.53055
 2018-Aug-09 13:27     05 19 35.980315 +19 01 55.66831
 2018-Aug-09 13:28     05 19 36.048698 +19 01 55.80606
 2018-Aug-09 13:29     05 19 36.117077 +19 01 55.94381
 2018-Aug-09 13:30     05 19 36.185452 +19 01 56.08154
 2018-Aug-09 13:31     05 19 36.253823 +19 01 56.21927
 2018-Aug-09 13:32     05 19 36.322191 +19 01 56.35700
 2018-Aug-09 13:33     05 19 36.390554 +19 01 56.49472
 2018-Aug-09 13:34     05 19 36.458914 +19 01 56.63243
 2018-Aug-09 13:35     05 19 36.527269 +19 01 56.77013
 2018-Aug-09 13:36     05 19 36.595621 +19 01 56.90783
 2018-Aug-09 13:37     05 19 36.663969 +19 01 57.04552
 2018-Aug-09 13:38     05 19 36.732313 +19 01 57.18320
 2018-Aug-09 13:39     05 19 36.800653 +19 01 57.32088
 2018-Aug-09 13:40     05 19 36.868989 +19 01 57.45855
 2018-Aug-09 13:41     05 19 36.937321 +19 01 57.59621
 2018-Aug-09 13:42     05 19 37.005649 +19 01 57.73386
 2018-Aug-09 13:43     05 19 37.073974 +19 01 57.87151
 2018-Aug-09 13:44     05 19 37.142294 +19 01 58.00915
 2018-Aug-09 13:45     05 19 37.210611 +19 01 58.14678
 2018-Aug-09 13:46     05 19 37.278924 +19 01 58.28440
 2018-Aug-09 13:47     05 19 37.347233 +19 01 58.42202
 2018-Aug-09 13:48     05 19 37.415538 +19 01 58.55963
 2018-Aug-09 13:49     05 19 37.483839 +19 01 58.69723
 2018-Aug-09 13:50     05 19 37.552136 +19 01 58.83482
 2018-Aug-09 13:51     05 19 37.620430 +19 01 58.97240
 2018-Aug-09 13:52     05 19 37.688720 +19 01 59.10998
 2018-Aug-09 13:53     05 19 37.757006 +19 01 59.24755
 2018-Aug-09 13:54     05 19 37.825288 +19 01 59.38511
 2018-Aug-09 13:55     05 19 37.893566 +19 01 59.52266
 2018-Aug-09 13:56     05 19 37.961841 +19 01 59.66020
 2018-Aug-09 13:57     05 19 38.030112 +19 01 59.79774
 2018-Aug-09 13:58     05 19 38.098379 +19 01 59.93526
 2018-Aug-09 13:59     05 19 38.166642 +19 02 00.07278
 2018-Aug-09 14:00     05 19 38.234901 +19 02 00.21029
 2018-Aug-09 14:01  m  05 19 38.303157 +19 02 00.34779
 2018-Aug-09 14:02  m  05 19 38.371408 +19 02 00.48528
 2018-Aug-09 14:03  m  05 19 38.439657 +19 02 00.62276
 2018-Aug-09 14:04  m  05 19 38.507901 +19 02 00.76024
 2018-Aug-09 14:05  m  05 19 38.576141 +19 02 00.89770
 2018-Aug-09 14:06  m  05 19 38.644378 +19 02 01.03516
 2018-Aug-09 14:07  m  05 19 38.712611 +19 02 01.17260
 2018-Aug-09 14:08  m  05 19 38.780841 +19 02 01.31004
 2018-Aug-09 14:09  m  05 19 38.849066 +19 02 01.44747
 2018-Aug-09 14:10  m  05 19 38.917288 +19 02 01.58489
 2018-Aug-09 14:11  m  05 19 38.985507 +19 02 01.72229
 2018-Aug-09 14:12  m  05 19 39.053721 +19 02 01.85969
 2018-Aug-09 14:13  m  05 19 39.121932 +19 02 01.99708
 2018-Aug-09 14:14  m  05 19 39.190139 +19 02 02.13446
 2018-Aug-09 14:15  m  05 19 39.258343 +19 02 02.27183
 2018-Aug-09 14:16  m  05 19 39.326542 +19 02 02.40919
 2018-Aug-09 14:17  m  05 19 39.394738 +19 02 02.54654
 2018-Aug-09 14:18  m  05 19 39.462931 +19 02 02.68388
 2018-Aug-09 14:19  m  05 19 39.531120 +19 02 02.82121
 2018-Aug-09 14:20  m  05 19 39.599305 +19 02 02.95853
 2018-Aug-09 14:21  m  05 19 39.667487 +19 02 03.09585
 2018-Aug-09 14:22  m  05 19 39.735665 +19 02 03.23315
 2018-Aug-09 14:23  m  05 19 39.803839 +19 02 03.37043
 2018-Aug-09 14:24  m  05 19 39.872010 +19 02 03.50771
 2018-Aug-09 14:25  m  05 19 39.940177 +19 02 03.64498
 2018-Aug-09 14:26  m  05 19 40.008340 +19 02 03.78224
 2018-Aug-09 14:27  m  05 19 40.076500 +19 02 03.91949
 2018-Aug-09 14:28  m  05 19 40.144656 +19 02 04.05673
 2018-Aug-09 14:29  m  05 19 40.212809 +19 02 04.19395
 2018-Aug-09 14:30  m  05 19 40.280958 +19 02 04.33117
 2018-Aug-09 14:31  m  05 19 40.349104 +19 02 04.46837
 2018-Aug-09 14:32  m  05 19 40.417246 +19 02 04.60557
 2018-Aug-09 14:33  m  05 19 40.485385 +19 02 04.74275
 2018-Aug-09 14:34  m  05 19 40.553520 +19 02 04.87992
 2018-Aug-09 14:35  m  05 19 40.621652 +19 02 05.01708
 2018-Aug-09 14:36  m  05 19 40.689780 +19 02 05.15423
 2018-Aug-09 14:37  m  05 19 40.757904 +19 02 05.29137
 2018-Aug-09 14:38  m  05 19 40.826025 +19 02 05.42850
 2018-Aug-09 14:39  m  05 19 40.894143 +19 02 05.56561
 2018-Aug-09 14:40  m  05 19 40.962257 +19 02 05.70272
 2018-Aug-09 14:41  m  05 19 41.030367 +19 02 05.83981
 2018-Aug-09 14:42  m  05 19 41.098475 +19 02 05.97689
 2018-Aug-09 14:43 Am  05 19 41.166578 +19 02 06.11396
 2018-Aug-09 14:44 Am  05 19 41.234679 +19 02 06.25102
 2018-Aug-09 14:45 Am  05 19 41.302775 +19 02 06.38807
 2018-Aug-09 14:46 Am  05 19 41.370869 +19 02 06.52510
 2018-Aug-09 14:47 Am  05 19 41.438959 +19 02 06.66212
 2018-Aug-09 14:48 Am  05 19 41.507045 +19 02 06.79913
